479P/Elenin,e,15.3988,295.8315,263.5204,5.623484,0.0739087,0.77885370,14.9857,11/24.0/2024,2000,g 15.0,4.0
# From MPEC 2024-GJ3
480P/PANSTARRS,e,13.7175,229.9772,214.3323,4.609177,0.0996022,0.24640746,57.8329,11/24.0/2024,2000,g 12.0,4.0
# From MPEC 2024-L77
481P/Lemmon-PANSTARRS,e,6.0826,93.5513,356.7380,4.679838,0.0973549,0.34348392,49.0599,11/24.0/2024,2000,g 13.5,4.0
# From MPEC 2024-JU4
482P/PANSTARRS,e,24.4850,126.0874,339.6892,3.755936,0.1354025,0.49236440,73.2418,11/24.0/2024,2000,g 13.5,4.0
# From MPEC 2024-R10
483P-A/PANSTARRS,e,14.2447,199.6271,48.5579,3.191046,0.1729038,0.22408337,173.7101,11/24.0/2024,2000,g 13.5,4.0
# From MPEC 2024-R10
483P-B/PANSTARRS,e,14.2455,199.6265,48.5477,3.190978,0.1729093,0.22402265,173.7449,11/24.0/2024,2000,g 17.0,4.0
# From MPEC 2024-DD5
484P/Spacewatch,e,14.4752,265.3947,240.7686,3.757770,0.1353034,0.43265966,197.2514,11/24.0/2024,2000,g 16.0,4.0
# From MPEC 2024-JU4
485P/Sheppard-Tholen,e,10.0161,261.6448,196.0472,6.848381,0.0549949,0.41714185,25.1371,11/24.0/2024,2000,g 13.0,4.0
# From MPEC 2024-R10
486P/Leonard,e,2.2095,219.0281,93.9485,3.628657,0.1425888,0.36370267,341.3411,11/24.0/2024,2000,g 14.5,4.0
# From MPEC 2024-VJ2
487P/SidingSpring,e,39.3691,49.2107,0.8632,5.166039,0.0839397,0.64867057,2.8835,11/24.0/2024,2000,g 13.5,4.0
# From MPEC 2024-UA9
488P/NEAT-PANSTARRS,e,11.3641,324.0664,1.4791,3.733418,0.1366294,0.55055265,25.7954,11/24.0/2024,2000,g 16.5,4.0
# From MPEC 2024-Q14
489P/Denning,e,4.0269,20.6115,109.4459,4.421885,0.1059968,0.64698224,320.2103,11/24.0/2024,2000,g 15.5,4.0
# From MPEC 2024-UQ8
490P/ATLAS,e,12.2663,307.6078,332.5235,3.029833,0.1868856,0.64725300,10.6176,11/24.0/2024,2000,g 21.0,4.0
# From MPEC 2024-UQ8
491P/Spacewatch-PANSTARRS,e,9.3653,311.6892,298.9185,5.013600,0.0877970,0.25867680,6.9120,11/24.0/2024,2000,g  9.5,4.0
# From MPEC 2024-VB7
492P/LINEAR,e,11.4001,11.3137,40.9974,5.765283,0.0711989,0.69087957,9.0061,11/24.0/2024,2000,g 15.0,4.0
# From MPEC 2024-VJ2
493P/LONEOS,e,24.1145,1.1137,83.1826,7.159444,0.0514500,0.46591187,338.5900,11/24.0/2024,2000,g 12.0,2.0
# From MPC107687
1I/`Oumuamua,h,09/09.4886/2017,122.6778,24.5997,241.6845,1.199252,0.255240,2000,23.0,2.0
# From MPEC 2023-L37
2I/Borisov,h,12/08.5548/2019,44.0527,308.1480,209.1251,3.356633,2.006548,2000,11.0,4.0
